NORAD_CAT_ID,OBJECT_NAME,OBJECT_TYPE,EPOCH,MEAN_MOTION,ECCENTRICITY,INCLINATION,RA_OF_ASC_NODE,ARG_OF_PERICENTER,MEAN_ANOMALY,BSTAR,MEAN_MOTION_DOT,MEAN_MOTION_DDOT,TLE_LINE0,TLE_LINE1,TLE_LINE2,SEMIMAJOR_AXIS,PERIOD,APOGEE,PERIGEE,DECAYED
51813.0,STARLINK-3552,PAYLOAD,2024-04-05 19:27:44,15.0885026,0.0001604,53.2176,244.4915,97.4441,262.6733,0.00014695,2.052e-05,0.0,0 STARLINK-3552,1 51813U 22017AX  24096.81092705  .00002052  00000-0  14695-3 0  9990,2 51813  53.2176 244.4915 0001604  97.4441 262.6733 15.08850260118085,6917.849,95.437,540.824,538.604,0.0
51813.0,STARLINK-3552,PAYLOAD,2024-04-06 09:46:12,15.08847357,0.0002198,53.2165,241.8162,93.6877,266.4366,0.00021044,3.063e-05,0.0,0 STARLINK-3552,1 51813U 22017AX  24097.40708893  .00003063  00000-0  21044-3 0  9997,2 51813  53.2165 241.8162 0002198  93.6877 266.4366 15.08847357118175,6917.858,95.437,541.243,538.202,0.0
51813.0,STARLINK-3552,PAYLOAD,2024-04-06 16:07:45,15.08842736,0.0002122,53.217,240.6266,96.3432,263.7802,0.00012671,1.729e-05,0.0,0 STARLINK-3552,1 51813U 22017AX  24097.67205104  .00001729  00000-0  12671-3 0  9996,2 51813  53.2170 240.6266 0002122  96.3432 263.7802 15.08842736118101,6917.872,95.437,541.205,538.269,0.0
51813.0,STARLINK-3552,PAYLOAD,2024-04-07 09:37:00,15.08834325,0.0002067,53.2178,237.3566,95.4301,264.6927,-5.25e-06,-3.72e-06,0.0,0 STARLINK-3552,1 51813U 22017AX  24098.40069531 -.00000372  00000-0 -52500-5 0  9992,2 51813  53.2178 237.3566 0002067  95.4301 264.6927 15.08834325118325,6917.898,95.438,541.193,538.333,0.0
51813.0,STARLINK-3552,PAYLOAD,2024-04-07 15:58:32,15.08834614,0.0001882,53.2183,236.1699,88.15,271.9707,3.355e-05,2.46e-06,0.0,0 STARLINK-3552,1 51813U 22017AX  24098.66565733  .00000246  00000-0  33550-4 0  9996,2 51813  53.2183 236.1699 0001882  88.1500 271.9707 15.08834614118259,6917.897,95.438,541.064,538.46,0.0
51813.0,STARLINK-3552,PAYLOAD,2024-04-08 09:27:47,15.08834843,0.0001824,53.2162,232.8981,90.2375,269.8826,0.00012182,1.651e-05,0.0,0 STARLINK-3552,1 51813U 22017AX  24099.39429943  .00001651  00000-0  12182-3 0  9997,2 51813  53.2162 232.8981 0001824  90.2375 269.8826 15.08834843118367,6917.896,95.438,541.023,538.499,0.0
51813.0,STARLINK-3552,PAYLOAD,2024-04-08 15:49:20,15.08836362,0.0001847,53.2161,231.7083,90.5579,269.5624,0.00012661,1.727e-05,0.0,0 STARLINK-3552,1 51813U 22017AX  24099.65925954  .00001727  00000-0  12661-3 0  9995,2 51813  53.2161 231.7083 0001847  90.5579 269.5624 15.08836362118519,6917.892,95.438,541.034,538.479,0.0
51813.0,STARLINK-3552,PAYLOAD,2024-04-09 07:43:11,15.08838669,0.0002062,53.2185,228.7344,90.108,270.0148,0.00012994,1.78e-05,0.0,0 STARLINK-3552,1 51813U 22017AX  24100.32165968  .00001780  00000-0  12994-3 0  9991,2 51813  53.2185 228.7344 0002062  90.1080 270.0148 15.08838669118503,6917.884,95.438,541.176,538.323,0.0
51813.0,STARLINK-3552,PAYLOAD,2024-04-09 15:40:07,15.08825559,0.0001517,53.2191,227.2473,89.3472,270.7694,-6.5561e-05,-1.331e-05,0.0,0 STARLINK-3552,1 51813U 22017AX  24100.65286812 -.00001331  00000-0 -65561-4 0  9992,2 51813  53.2191 227.2473 0001517  89.3472 270.7694 15.08825559118660,6917.925,95.438,540.839,538.74,0.0
51813.0,STARLINK-3552,PAYLOAD,2024-04-10 01:12:27,15.08820236,0.0002114,53.2206,225.4629,88.3907,271.7327,-0.00013205,-2.388e-05,0.0,0 STARLINK-3552,1 51813U 22017AX  24101.05031558 -.00002388  00000-0 -13205-3 0  9992,2 51813  53.2206 225.4629 0002114  88.3907 271.7327 15.08820236118612,6917.941,95.439,541.268,538.343,0.0
51813.0,STARLINK-3552,PAYLOAD,2024-04-10 18:41:40,15.08844696,5.34e-05,53.2112,222.1908,100.5716,259.5337,0.00017531,2.504e-05,0.0,0 STARLINK-3552,1 51813U 22017AX  24101.77893867  .00002504  00000-0  17531-3 0  9994,2 51813  53.2112 222.1908 0000534 100.5716 259.5337 15.08844696118836,6917.866,95.437,540.1,539.362,0.0
51813.0,STARLINK-3552,PAYLOAD,2024-04-11 01:03:12,15.08857983,2.07e-05,53.2137,221.0034,123.7777,236.3235,0.00021476,3.134e-05,0.0,0 STARLINK-3552,1 51813U 22017AX  24102.04388989  .00003134  00000-0  21476-3 0  9992,2 51813  53.2137 221.0034 0000207 123.7777 236.3235 15.08857983118879,6917.825,95.436,539.834,539.547,0.0
51813.0,STARLINK-3552,PAYLOAD,2024-04-11 12:10:55,15.08836203,0.0001125,53.2162,218.9204,92.5316,267.5805,0.00020726,3.012e-05,0.0,0 STARLINK-3552,1 51813U 22017AX  24102.50758608  .00003012  00000-0  20726-3 0  9994,2 51813  53.2162 218.9204 0001125  92.5316 267.5805 15.08836203118942,6917.892,95.438,540.535,538.979,0.0
51813.0,STARLINK-3552,PAYLOAD,2024-04-11 13:46:18,15.08839717,0.0001487,53.2184,218.6241,92.0042,268.112,0.00015426,2.168e-05,0.0,0 STARLINK-3552,1 51813U 22017AX  24102.57382597  .00002168  00000-0  15426-3 0  9993,2 51813  53.2184 218.6241 0001487  92.0042 268.1120 15.08839717118845,6917.881,95.438,540.775,538.718,0.0
51813.0,STARLINK-3552,PAYLOAD,2024-04-12 00:53:59,15.08856311,0.0001426,53.2175,216.5403,86.3866,273.7289,0.00034206,5.163e-05,0.0,0 STARLINK-3552,1 51813U 22017AX  24103.03749695  .00005163  00000-0  34206-3 0  9996,2 51813  53.2175 216.5403 0001426  86.3866 273.7289 15.08856311119023,6917.831,95.437,540.682,538.709,0.0
51813.0,STARLINK-3552,PAYLOAD,2024-04-12 12:01:42,15.08840432,0.0002095,53.2169,214.4616,85.0653,275.0579,-0.00010855,-2.015e-05,0.0,0 STARLINK-3552,1 51813U 22017AX  24103.50118283 -.00002015  00000-0 -10855-3 0  9990,2 51813  53.2169 214.4616 0002095  85.0653 275.0579 15.08840432119093,6917.879,95.438,541.193,538.295,0.0
51813.0,STARLINK-3552,PAYLOAD,2024-04-12 13:37:05,15.08841791,0.0002283,53.2178,214.1632,85.3664,274.7589,-0.0001184,-2.172e-05,0.0,0 STARLINK-3552,1 51813U 22017AX  24103.56742283 -.00002172  00000-0 -11840-3 0  9998,2 51813  53.2178 214.1632 0002283  85.3664 274.7589 15.08841791118996,6917.875,95.437,541.319,538.161,0.0
51813.0,STARLINK-3552,PAYLOAD,2024-04-13 13:27:52,15.08844224,0.000144,53.2168,209.7014,93.322,266.7937,0.0001653,2.344e-05,0.0,0 STARLINK-3552,1 51813U 22017AX  24104.56102067  .00002344  00000-0  16530-3 0  9999,2 51813  53.2168 209.7014 0001440  93.3220 266.7937 15.08844224119140,6917.867,95.437,540.729,538.736,0.0
51813.0,STARLINK-3552,PAYLOAD,2024-04-13 18:14:01,15.08851131,0.0001321,53.2159,208.8085,96.5718,263.5425,0.00030727,4.607e-05,0.0,0 STARLINK-3552,1 51813U 22017AX  24104.75973755  .00004607  00000-0  30727-3 0  9998,2 51813  53.2159 208.8085 0001321  96.5718 263.5425 15.08851131119280,6917.846,95.437,540.625,538.798,0.0
51813.0,STARLINK-3552,PAYLOAD,2024-04-14 11:43:16,15.08837814,0.0001531,53.2157,205.5393,54.8355,305.2781,0.00014805,2.069e-05,0.0,0 STARLINK-3552,1 51813U 22017AX  24105.48838568  .00002069  00000-0  14805-3 0  9990,2 51813  53.2157 205.5393 0001531  54.8355 305.2781 15.08837814119394,6917.887,95.438,540.811,538.693,0.0
51813.0,STARLINK-3552,PAYLOAD,2024-04-14 13:18:39,15.08844053,0.0001417,53.217,205.2418,76.57,283.545,0.00018476,2.654e-05,0.0,0 STARLINK-3552,1 51813U 22017AX  24105.55462187  .00002654  00000-0  18476-3 0  9996,2 51813  53.2170 205.2418 0001417  76.5700 283.5450 15.08844053119408,6917.868,95.437,540.713,538.753,0.0
51813.0,STARLINK-3552,PAYLOAD,2024-04-15 11:34:03,15.08839669,0.0001417,53.2175,201.0777,97.0771,263.0382,5.9665e-05,6.62e-06,0.0,0 STARLINK-3552,1 51813U 22017AX  24106.48198210  .00000662  00000-0  59665-4 0  9995,2 51813  53.2175 201.0777 0001417  97.0771 263.0382 15.08839669119540,6917.881,95.438,540.727,538.766,0.0
51813.0,STARLINK-3552,PAYLOAD,2024-04-15 16:20:12,15.08839984,0.0001423,53.2176,200.184,103.3189,256.7962,5.5428e-05,5.94e-06,0.0,0 STARLINK-3552,1 51813U 22017AX  24106.68070140  .00000594  00000-0  55428-4 0  9995,2 51813  53.2176 200.1840 0001423 103.3189 256.7962 15.08839984119467,6917.88,95.438,540.73,538.761,0.0
51813.0,STARLINK-3552,PAYLOAD,2024-04-15 22:41:44,15.08857484,0.0001269,53.217,199.001,91.3846,268.7291,0.00026219,3.889e-05,0.0,0 STARLINK-3552,1 51813U 22017AX  24106.94565649  .00003889  00000-0  26219-3 0  9992,2 51813  53.2170 199.0010 0001269  91.3846 268.7291 15.08857484119610,6917.827,95.436,540.57,538.814,0.0
51813.0,STARLINK-3552,PAYLOAD,2024-04-16 13:00:13,15.08841678,0.0001345,53.2167,196.3246,100.0471,260.0673,5.1993e-05,5.4e-06,0.0,0 STARLINK-3552,1 51813U 22017AX  24107.54182164  .00000540  00000-0  51993-4 0  9995,2 51813  53.2167 196.3246 0001345 100.0471 260.0673 15.08841678119701,6917.875,95.437,540.671,538.81,0.0
51813.0,STARLINK-3552,PAYLOAD,2024-04-17 11:15:37,15.08834926,0.0001382,53.2166,192.1632,106.1595,253.9549,4.5724e-05,4.4e-06,0.0,0 STARLINK-3552,1 51813U 22017AX  24108.46918620  .00000440  00000-0  45724-4 0  9995,2 51813  53.2166 192.1632 0001382 106.1595 253.9549 15.08834926119844,6917.896,95.438,540.717,538.805,0.0
51813.0,STARLINK-3552,PAYLOAD,2024-04-18 12:41:48,15.08832163,0.0001516,53.2166,187.3991,91.419,268.6975,0.00011862,1.6e-05,0.0,0 STARLINK-3552,1 51813U 22017AX  24109.52903597  .00001600  00000-0  11862-3 0  9994,2 51813  53.2166 187.3991 0001516  91.4190 268.6975 15.08832163120001,6917.904,95.438,540.818,538.721,0.0
51813.0,STARLINK-3552,PAYLOAD,2024-04-19 12:32:36,15.08838404,0.0001816,53.218,182.9417,66.383,293.7353,0.00063464,9.826e-05,0.0,0 STARLINK-3552,1 51813U 22017AX  24110.52264010  .00009826  00000-0  63464-3 0  9999,2 51813  53.2180 182.9417 0001816  66.3830 293.7353 15.08838404120043,6917.885,95.438,541.007,538.494,0.0
51813.0,STARLINK-3552,PAYLOAD,2024-04-20 13:58:45,15.0882026,0.0001495,53.2169,178.1844,60.8726,299.2416,-0.00055007,-9.027e-05,0.0,0 STARLINK-3552,1 51813U 22017AX  24111.58246954 -.00009027  00000-0 -55007-3 0  9992,2 51813  53.2169 178.1844 0001495  60.8726 299.2416 15.08820260120207,6917.941,95.439,540.84,538.771,0.0
51813.0,STARLINK-3552,PAYLOAD,2024-04-21 13:49:32,15.08837357,0.0001997,53.2183,173.7163,116.9578,243.1618,9.4535e-05,1.217e-05,0.0,0 STARLINK-3552,1 51813U 22017AX  24112.57607403  .00001217  00000-0  94535-4 0  9993,2 51813  53.2183 173.7163 0001997 116.9578 243.1618 15.08837357120356,6917.888,95.438,541.135,538.372,0.0
